{
  "type": "FeatureCollection",
  "features": [
    {
      "type": "Feature",
      "properties": {
        "norad_id": 55973,
        "name": "TIANMU-1 03",
        "group": "weather",
        "lat": 29.271588002862643,
        "lon": 160.3942050470727,
        "alt_km": 438.32392685107334,
        "timestamp": "2025-12-27T13:34:48.933047+00:00",
        "meta_object_name": "TIANMU-1 03",
        "meta_object_id": "2023-039A",
        "meta_epoch": "2025-12-27T07:13:12.932832",
        "meta_mean_motion": 15.41359239,
        "meta_eccentricity": 0.00036531,
        "meta_inclination": 97.5115,
        "meta_ra_of_asc_node": 164.3632,
        "meta_arg_of_pericenter": 18.1719,
        "meta_mean_anomaly": 341.9657,
        "meta_ephemeris_type": 0,
        "meta_classification_type": "U",
        "meta_norad_cat_id": 55973,
        "meta_element_set_no": 999,
        "meta_rev_at_epoch": 15430,
        "meta_bstar": 0.00041021115,
        "meta_mean_motion_dot": 0.00017049,
        "meta_mean_motion_ddot": 0,
        "tle_line1": "1 55973U 23039A   25361.30084413  .00017049  00000+0  41021-3 0  9997",
        "tle_line2": "2 55973  97.5115 164.3632 0003653  18.1719 341.9657 15.41359239154308"
      },
      "geometry": {
        "type": "Point",
        "coordinates": [
          160.3942050470727,
          29.271588002862643
        ]
      }
    },
    {
      "type": "Feature",
      "properties": {
        "norad_id": 55974,
        "name": "TIANMU-1 04",
        "group": "weather",
        "lat": 17.931959686489467,
        "lon": -13.734097487900327,
        "alt_km": 444.1097750398794,
        "timestamp": "2025-12-27T13:34:48.933128+00:00",
        "meta_object_name": "TIANMU-1 04",
        "meta_object_id": "2023-039B",
        "meta_epoch": "2025-12-27T08:12:27.655200",
        "meta_mean_motion": 15.41705291,
        "meta_eccentricity": 0.0004253,
        "meta_inclination": 97.5045,
        "meta_ra_of_asc_node": 163.5908,
        "meta_arg_of_pericenter": 11.1584,
        "meta_mean_anomaly": 348.9756,
        "meta_ephemeris_type": 0,
        "meta_classification_type": "U",
        "meta_norad_cat_id": 55974,
        "meta_element_set_no": 999,
        "meta_rev_at_epoch": 15431,
        "meta_bstar": 0.00041978766,
        "meta_mean_motion_dot": 0.00017654,
        "meta_mean_motion_ddot": 0,
        "tle_line1": "1 55974U 23039B   25361.34198675  .00017654  00000+0  41979-3 0  9992",
        "tle_line2": "2 55974  97.5045 163.5908 0004253  11.1584 348.9756 15.41705291154319"
      },
      "geometry": {
        "type": "Point",
        "coordinates": [
          -13.734097487900327,
          17.931959686489467
        ]
      }
    },
    {
      "type": "Feature",
      "properties": {
        "norad_id": 55975,
        "name": "TIANMU-1 05",
        "group": "weather",
        "lat": 6.568978611221051,
        "lon": -14.815922911522524,
        "alt_km": 446.3028354902781,
        "timestamp": "2025-12-27T13:34:48.933150+00:00",
        "meta_object_name": "TIANMU-1 05",
        "meta_object_id": "2023-039C",
        "meta_epoch": "2025-12-27T08:09:24.640128",
        "meta_mean_motion": 15.41316873,
        "meta_eccentricity": 0.00038452,
        "meta_inclination": 97.5092,
        "meta_ra_of_asc_node": 164.0814,
        "meta_arg_of_pericenter": 38.111,
        "meta_mean_anomaly": 322.0408,
        "meta_ephemeris_type": 0,
        "meta_classification_type": "U",
        "meta_norad_cat_id": 55975,
        "meta_element_set_no": 999,
        "meta_rev_at_epoch": 15429,
        "meta_bstar": 0.00041737393,
        "meta_mean_motion_dot": 0.00017325,
        "meta_mean_motion_ddot": 0,
        "tle_line1": "1 55975U 23039C   25361.33986852  .00017325  00000+0  41737-3 0  9991",
        "tle_line2": "2 55975  97.5092 164.0814 0003845  38.1110 322.0408 15.41316873154292"
      },
      "geometry": {
        "type": "Point",
        "coordinates": [
          -14.815922911522524,
          6.568978611221051
        ]
      }
    },
    {
      "type": "Feature",
      "properties": {
        "norad_id": 55976,
        "name": "TIANMU-1 06",
        "group": "weather",
        "lat": 27.13341686220917,
        "lon": -11.332163592179702,
        "alt_km": 441.4013642419177,
        "timestamp": "2025-12-27T13:34:48.933164+00:00",
        "meta_object_name": "TIANMU-1 06",
        "meta_object_id": "2023-039D",
        "meta_epoch": "2025-12-27T08:14:53.443968",
        "meta_mean_motion": 15.41756393,
        "meta_eccentricity": 0.00040895,
        "meta_inclination": 97.5103,
        "meta_ra_of_asc_node": 164.5626,
        "meta_arg_of_pericenter": 31.641,
        "meta_mean_anomaly": 328.5082,
        "meta_ephemeris_type": 0,
        "meta_classification_type": "U",
        "meta_norad_cat_id": 55976,
        "meta_element_set_no": 999,
        "meta_rev_at_epoch": 15431,
        "meta_bstar": 0.00042088599,
        "meta_mean_motion_dot": 0.0001773,
        "meta_mean_motion_ddot": 0,
        "tle_line1": "1 55976U 23039D   25361.34367412  .00017730  00000+0  42089-3 0  9999",
        "tle_line2": "2 55976  97.5103 164.5626 0004089  31.6410 328.5082 15.41756393154311"
      },
      "geometry": {
        "type": "Point",
        "coordinates": [
          -11.332163592179702,
          27.13341686220917
        ]
      }
    },
    {
      "type": "Feature",
      "properties": {
        "norad_id": 56232,
        "name": "FENGYUN 3G",
        "group": "weather",
        "lat": -49.96526867750787,
        "lon": 59.66107131670235,
        "alt_km": 412.3803950839565,
        "timestamp": "2025-12-27T13:34:48.933176+00:00",
        "meta_object_name": "FENGYUN 3G",
        "meta_object_id": "2023-055A",
        "meta_epoch": "2025-12-27T06:14:42.601056",
        "meta_mean_motion": 15.52188444,
        "meta_eccentricity": 0.00039228,
        "meta_inclination": 49.9927,
        "meta_ra_of_asc_node": 152.5311,
        "meta_arg_of_pericenter": 298.5758,
        "meta_mean_anomaly": 61.4814,
        "meta_ephemeris_type": 0,
        "meta_classification_type": "U",
        "meta_norad_cat_id": 56232,
        "meta_element_set_no": 999,
        "meta_rev_at_epoch": 15328,
        "meta_bstar": 0.00050895153,
        "meta_mean_motion_dot": 0.00031116,
        "meta_mean_motion_ddot": 0,
        "tle_line1": "1 56232U 23055A   25361.26021529  .00031116  00000+0  50895-3 0  9998",
        "tle_line2": "2 56232  49.9927 152.5311 0003922 298.5758  61.4814 15.52188444153283"
      },
      "geometry": {
        "type": "Point",
        "coordinates": [
          59.66107131670235,
          -49.96526867750787
        ]
      }
    },
    {
      "type": "Feature",
      "properties": {
        "norad_id": 57166,
        "name": "METEOR-M2 3",
        "group": "weather",
        "lat": -68.44339747998345,
        "lon": -147.7793584149387,
        "alt_km": 818.2867661010623,
        "timestamp": "2025-12-27T13:34:48.933187+00:00",
        "meta_object_name": "METEOR-M2 3",
        "meta_object_id": "2023-091A",
        "meta_epoch": "2025-12-27T07:20:59.753760",
        "meta_mean_motion": 14.24027824,
        "meta_eccentricity": 0.00031512,
        "meta_inclination": 98.6357,
        "meta_ra_of_asc_node": 54.5898,
        "meta_arg_of_pericenter": 322.5193,
        "meta_mean_anomaly": 37.5766,
        "meta_ephemeris_type": 0,
        "meta_classification_type": "U",
        "meta_norad_cat_id": 57166,
        "meta_element_set_no": 999,
        "meta_rev_at_epoch": 13005,
        "meta_bstar": 2.469859e-05,
        "meta_mean_motion_dot": 1.3e-07,
        "meta_mean_motion_ddot": 0,
        "tle_line1": "1 57166U 23091A   25361.30624715  .00000013  00000+0  24699-4 0  9992",
        "tle_line2": "2 57166  98.6357  54.5898 0003151 322.5193  37.5766 14.24027824130056"
      },
      "geometry": {
        "type": "Point",
        "coordinates": [
          -147.7793584149387,
          -68.44339747998345
        ]
      }
    },
    {
      "type": "Feature",
      "properties": {
        "norad_id": 57399,
        "name": "TIANMU-1 07",
        "group": "weather",
        "lat": -46.075987311630875,
        "lon": -136.54508457700638,
        "alt_km": 491.0896352796153,
        "timestamp": "2025-12-27T13:34:48.933198+00:00",
        "meta_object_name": "TIANMU-1 07",
        "meta_object_id": "2023-101A",
        "meta_epoch": "2025-12-27T07:52:41.494656",
        "meta_mean_motion": 15.2828184,
        "meta_eccentricity": 0.00048492,
        "meta_inclination": 97.2857,
        "meta_ra_of_asc_node": 50.8561,
        "meta_arg_of_pericenter": 43.5812,
        "meta_mean_anomaly": 316.581,
        "meta_ephemeris_type": 0,
        "meta_classification_type": "U",
        "meta_norad_cat_id": 57399,
        "meta_element_set_no": 999,
        "meta_rev_at_epoch": 13538,
        "meta_bstar": 0.00028676274,
        "meta_mean_motion_dot": 7.831e-05,
        "meta_mean_motion_ddot": 0,
        "tle_line1": "1 57399U 23101A   25361.32825804  .00007831  00000+0  28676-3 0  9999",
        "tle_line2": "2 57399  97.2857  50.8561 0004849  43.5812 316.5810 15.28281840135389"
      },
      "geometry": {
        "type": "Point",
        "coordinates": [
          -136.54508457700638,
          -46.075987311630875
        ]
      }
    }
  ]
}